{
"type": "FeatureCollection",
"name": "agadir_sampled_domain",
"crs": { "type": "name", "properties": { "name": "urn:ogc:def:crs:EPSG::32629" } },
"features": [
{ "type": "Feature", "properties": { }, "geometry": { "type": "Polygon", "coordinates": [ [ [ 507920.0, 3350540.0 ], [ 507920.0, 3355660.0 ], [ 507920.0, 3360780.0 ], [ 513040.0, 3360780.0 ], [ 513040.0, 3365900.0 ], [ 518160.0, 3365900.0 ], [ 518160.0, 3371020.0 ], [ 523280.0, 3371020.0 ], [ 523280.0, 3376140.0 ], [ 528400.0, 3376140.0 ], [ 533520.0, 3376140.0 ], [ 538640.0, 3376140.0 ], [ 538640.0, 3371020.0 ], [ 543760.0, 3371020.0 ], [ 543760.0, 3365900.0 ], [ 548880.0, 3365900.0 ], [ 554000.0, 3365900.0 ], [ 558420.0, 3365900.0 ], [ 558420.0, 3360780.0 ], [ 558420.0, 3355660.0 ], [ 558420.0, 3350540.0 ], [ 558420.0, 3345420.0 ], [ 554000.0, 3345420.0 ], [ 548880.0, 3345420.0 ], [ 548880.0, 3340300.0 ], [ 543760.0, 3340300.0 ], [ 538640.0, 3340300.0 ], [ 538640.0, 3335180.0 ], [ 533520.0, 3335180.0 ], [ 528400.0, 3335180.0 ], [ 528400.0, 3331010.0 ], [ 523280.0, 3331010.0 ], [ 518160.0, 3331010.0 ], [ 513040.0, 3331010.0 ], [ 513040.0, 3335180.0 ], [ 507920.0, 3335180.0 ], [ 507920.0, 3340300.0 ], [ 507920.0, 3345420.0 ], [ 507920.0, 3350540.0 ] ] ] } }
]
}
