{
"type": "FeatureCollection",
"name": "agadir_spatial_partitions",
"crs": { "type": "name", "properties": { "name": "urn:ogc:def:crs:EPSG::32629" } },
"features": [
{ "type": "Feature", "properties": { "patch_key": "agadir|AGADIR_r000000_c002560", "split": "val" }, "geometry": { "type": "Polygon", "coordinates": [ [ [ 538640.0, 3371020.0 ], [ 533520.0, 3371020.0 ], [ 533520.0, 3376140.0 ], [ 538640.0, 3376140.0 ], [ 538640.0, 3371020.0 ] ] ] } },
{ "type": "Feature", "properties": { "patch_key": "agadir|AGADIR_r000512_c002048", "split": "train" }, "geometry": { "type": "Polygon", "coordinates": [ [ [ 533520.0, 3365900.0 ], [ 528400.0, 3365900.0 ], [ 528400.0, 3371020.0 ], [ 533520.0, 3371020.0 ], [ 533520.0, 3365900.0 ] ] ] } },
{ "type": "Feature", "properties": { "patch_key": "agadir|AGADIR_r000512_c002560", "split": "train" }, "geometry": { "type": "Polygon", "coordinates": [ [ [ 538640.0, 3365900.0 ], [ 533520.0, 3365900.0 ], [ 533520.0, 3371020.0 ], [ 538640.0, 3371020.0 ], [ 538640.0, 3365900.0 ] ] ] } },
{ "type": "Feature", "properties": { "patch_key": "agadir|AGADIR_r001536_c001024", "split": "val" }, "geometry": { "type": "Polygon", "coordinates": [ [ [ 523280.0, 3355660.0 ], [ 518160.0, 3355660.0 ], [ 518160.0, 3360780.0 ], [ 523280.0, 3360780.0 ], [ 523280.0, 3355660.0 ] ] ] } },
{ "type": "Feature", "properties": { "patch_key": "agadir|AGADIR_r001536_c001536", "split": "train" }, "geometry": { "type": "Polygon", "coordinates": [ [ [ 528400.0, 3355660.0 ], [ 523280.0, 3355660.0 ], [ 523280.0, 3360780.0 ], [ 528400.0, 3360780.0 ], [ 528400.0, 3355660.0 ] ] ] } },
{ "type": "Feature", "properties": { "patch_key": "agadir|AGADIR_r001536_c002560", "split": "test" }, "geometry": { "type": "Polygon", "coordinates": [ [ [ 538640.0, 3355660.0 ], [ 533520.0, 3355660.0 ], [ 533520.0, 3360780.0 ], [ 538640.0, 3360780.0 ], [ 538640.0, 3355660.0 ] ] ] } },
{ "type": "Feature", "properties": { "patch_key": "agadir|AGADIR_r002048_c004096", "split": "train" }, "geometry": { "type": "Polygon", "coordinates": [ [ [ 554000.0, 3350540.0 ], [ 548880.0, 3350540.0 ], [ 548880.0, 3355660.0 ], [ 554000.0, 3355660.0 ], [ 554000.0, 3350540.0 ] ] ] } },
{ "type": "Feature", "properties": { "patch_key": "agadir|AGADIR_r002560_c001024", "split": "val" }, "geometry": { "type": "Polygon", "coordinates": [ [ [ 523280.0, 3345420.0 ], [ 518160.0, 3345420.0 ], [ 518160.0, 3350540.0 ], [ 523280.0, 3350540.0 ], [ 523280.0, 3345420.0 ] ] ] } },
{ "type": "Feature", "properties": { "patch_key": "agadir|AGADIR_r003072_c001536", "split": "train" }, "geometry": { "type": "Polygon", "coordinates": [ [ [ 528400.0, 3340300.0 ], [ 523280.0, 3340300.0 ], [ 523280.0, 3345420.0 ], [ 528400.0, 3345420.0 ], [ 528400.0, 3340300.0 ] ] ] } },
{ "type": "Feature", "properties": { "patch_key": "agadir|AGADIR_r003584_c001536", "split": "test" }, "geometry": { "type": "Polygon", "coordinates": [ [ [ 528400.0, 3335180.0 ], [ 523280.0, 3335180.0 ], [ 523280.0, 3340300.0 ], [ 528400.0, 3340300.0 ], [ 528400.0, 3335180.0 ] ] ] } },
{ "type": "Feature", "properties": { "patch_key": "agadir|AGADIR_r000000_c001536", "split": "train" }, "geometry": { "type": "Polygon", "coordinates": [ [ [ 528400.0, 3371020.0 ], [ 523280.0, 3371020.0 ], [ 523280.0, 3376140.0 ], [ 528400.0, 3376140.0 ], [ 528400.0, 3371020.0 ] ] ] } },
{ "type": "Feature", "properties": { "patch_key": "agadir|AGADIR_r000000_c002048", "split": "train" }, "geometry": { "type": "Polygon", "coordinates": [ [ [ 533520.0, 3371020.0 ], [ 528400.0, 3371020.0 ], [ 528400.0, 3376140.0 ], [ 533520.0, 3376140.0 ], [ 533520.0, 3371020.0 ] ] ] } },
{ "type": "Feature", "properties": { "patch_key": "agadir|AGADIR_r000512_c001024", "split": "train" }, "geometry": { "type": "Polygon", "coordinates": [ [ [ 523280.0, 3365900.0 ], [ 518160.0, 3365900.0 ], [ 518160.0, 3371020.0 ], [ 523280.0, 3371020.0 ], [ 523280.0, 3365900.0 ] ] ] } },
{ "type": "Feature", "properties": { "patch_key": "agadir|AGADIR_r000512_c001536", "split": "train" }, "geometry": { "type": "Polygon", "coordinates": [ [ [ 528400.0, 3365900.0 ], [ 523280.0, 3365900.0 ], [ 523280.0, 3371020.0 ], [ 528400.0, 3371020.0 ], [ 528400.0, 3365900.0 ] ] ] } },
{ "type": "Feature", "properties": { "patch_key": "agadir|AGADIR_r000512_c003072", "split": "train" }, "geometry": { "type": "Polygon", "coordinates": [ [ [ 543760.0, 3365900.0 ], [ 538640.0, 3365900.0 ], [ 538640.0, 3371020.0 ], [ 543760.0, 3371020.0 ], [ 543760.0, 3365900.0 ] ] ] } },
{ "type": "Feature", "properties": { "patch_key": "agadir|AGADIR_r001024_c000512", "split": "train" }, "geometry": { "type": "Polygon", "coordinates": [ [ [ 518160.0, 3360780.0 ], [ 513040.0, 3360780.0 ], [ 513040.0, 3365900.0 ], [ 518160.0, 3365900.0 ], [ 518160.0, 3360780.0 ] ] ] } },
{ "type": "Feature", "properties": { "patch_key": "agadir|AGADIR_r001024_c001024", "split": "test" }, "geometry": { "type": "Polygon", "coordinates": [ [ [ 523280.0, 3360780.0 ], [ 518160.0, 3360780.0 ], [ 518160.0, 3365900.0 ], [ 523280.0, 3365900.0 ], [ 523280.0, 3360780.0 ] ] ] } },
{ "type": "Feature", "properties": { "patch_key": "agadir|AGADIR_r001024_c002048", "split": "train" }, "geometry": { "type": "Polygon", "coordinates": [ [ [ 533520.0, 3360780.0 ], [ 528400.0, 3360780.0 ], [ 528400.0, 3365900.0 ], [ 533520.0, 3365900.0 ], [ 533520.0, 3360780.0 ] ] ] } },
{ "type": "Feature", "properties": { "patch_key": "agadir|AGADIR_r001024_c002560", "split": "train" }, "geometry": { "type": "Polygon", "coordinates": [ [ [ 538640.0, 3360780.0 ], [ 533520.0, 3360780.0 ], [ 533520.0, 3365900.0 ], [ 538640.0, 3365900.0 ], [ 538640.0, 3360780.0 ] ] ] } },
{ "type": "Feature", "properties": { "patch_key": "agadir|AGADIR_r001024_c003584", "split": "train" }, "geometry": { "type": "Polygon", "coordinates": [ [ [ 548880.0, 3360780.0 ], [ 543760.0, 3360780.0 ], [ 543760.0, 3365900.0 ], [ 548880.0, 3365900.0 ], [ 548880.0, 3360780.0 ] ] ] } },
{ "type": "Feature", "properties": { "patch_key": "agadir|AGADIR_r001024_c004096", "split": "val" }, "geometry": { "type": "Polygon", "coordinates": [ [ [ 554000.0, 3360780.0 ], [ 548880.0, 3360780.0 ], [ 548880.0, 3365900.0 ], [ 554000.0, 3365900.0 ], [ 554000.0, 3360780.0 ] ] ] } },
{ "type": "Feature", "properties": { "patch_key": "agadir|AGADIR_r001024_c004608", "split": "train" }, "geometry": { "type": "Polygon", "coordinates": [ [ [ 558420.0, 3360780.0 ], [ 554000.0, 3360780.0 ], [ 554000.0, 3365900.0 ], [ 558420.0, 3365900.0 ], [ 558420.0, 3360780.0 ] ] ] } },
{ "type": "Feature", "properties": { "patch_key": "agadir|AGADIR_r001536_c000000", "split": "train" }, "geometry": { "type": "Polygon", "coordinates": [ [ [ 513040.0, 3355660.0 ], [ 507920.0, 3355660.0 ], [ 507920.0, 3360780.0 ], [ 513040.0, 3360780.0 ], [ 513040.0, 3355660.0 ] ] ] } },
{ "type": "Feature", "properties": { "patch_key": "agadir|AGADIR_r001536_c000512", "split": "val" }, "geometry": { "type": "Polygon", "coordinates": [ [ [ 518160.0, 3355660.0 ], [ 513040.0, 3355660.0 ], [ 513040.0, 3360780.0 ], [ 518160.0, 3360780.0 ], [ 518160.0, 3355660.0 ] ] ] } },
{ "type": "Feature", "properties": { "patch_key": "agadir|AGADIR_r001536_c003072", "split": "train" }, "geometry": { "type": "Polygon", "coordinates": [ [ [ 543760.0, 3355660.0 ], [ 538640.0, 3355660.0 ], [ 538640.0, 3360780.0 ], [ 543760.0, 3360780.0 ], [ 543760.0, 3355660.0 ] ] ] } },
{ "type": "Feature", "properties": { "patch_key": "agadir|AGADIR_r001536_c003584", "split": "train" }, "geometry": { "type": "Polygon", "coordinates": [ [ [ 548880.0, 3355660.0 ], [ 543760.0, 3355660.0 ], [ 543760.0, 3360780.0 ], [ 548880.0, 3360780.0 ], [ 548880.0, 3355660.0 ] ] ] } },
{ "type": "Feature", "properties": { "patch_key": "agadir|AGADIR_r001536_c004096", "split": "val" }, "geometry": { "type": "Polygon", "coordinates": [ [ [ 554000.0, 3355660.0 ], [ 548880.0, 3355660.0 ], [ 548880.0, 3360780.0 ], [ 554000.0, 3360780.0 ], [ 554000.0, 3355660.0 ] ] ] } },
{ "type": "Feature", "properties": { "patch_key": "agadir|AGADIR_r001536_c004608", "split": "train" }, "geometry": { "type": "Polygon", "coordinates": [ [ [ 558420.0, 3355660.0 ], [ 554000.0, 3355660.0 ], [ 554000.0, 3360780.0 ], [ 558420.0, 3360780.0 ], [ 558420.0, 3355660.0 ] ] ] } },
{ "type": "Feature", "properties": { "patch_key": "agadir|AGADIR_r002048_c000512", "split": "val" }, "geometry": { "type": "Polygon", "coordinates": [ [ [ 518160.0, 3350540.0 ], [ 513040.0, 3350540.0 ], [ 513040.0, 3355660.0 ], [ 518160.0, 3355660.0 ], [ 518160.0, 3350540.0 ] ] ] } },
{ "type": "Feature", "properties": { "patch_key": "agadir|AGADIR_r002048_c001024", "split": "train" }, "geometry": { "type": "Polygon", "coordinates": [ [ [ 523280.0, 3350540.0 ], [ 518160.0, 3350540.0 ], [ 518160.0, 3355660.0 ], [ 523280.0, 3355660.0 ], [ 523280.0, 3350540.0 ] ] ] } },
{ "type": "Feature", "properties": { "patch_key": "agadir|AGADIR_r002048_c001536", "split": "val" }, "geometry": { "type": "Polygon", "coordinates": [ [ [ 528400.0, 3350540.0 ], [ 523280.0, 3350540.0 ], [ 523280.0, 3355660.0 ], [ 528400.0, 3355660.0 ], [ 528400.0, 3350540.0 ] ] ] } },
{ "type": "Feature", "properties": { "patch_key": "agadir|AGADIR_r002048_c002560", "split": "val" }, "geometry": { "type": "Polygon", "coordinates": [ [ [ 538640.0, 3350540.0 ], [ 533520.0, 3350540.0 ], [ 533520.0, 3355660.0 ], [ 538640.0, 3355660.0 ], [ 538640.0, 3350540.0 ] ] ] } },
{ "type": "Feature", "properties": { "patch_key": "agadir|AGADIR_r002048_c003072", "split": "train" }, "geometry": { "type": "Polygon", "coordinates": [ [ [ 543760.0, 3350540.0 ], [ 538640.0, 3350540.0 ], [ 538640.0, 3355660.0 ], [ 543760.0, 3355660.0 ], [ 543760.0, 3350540.0 ] ] ] } },
{ "type": "Feature", "properties": { "patch_key": "agadir|AGADIR_r002048_c003584", "split": "train" }, "geometry": { "type": "Polygon", "coordinates": [ [ [ 548880.0, 3350540.0 ], [ 543760.0, 3350540.0 ], [ 543760.0, 3355660.0 ], [ 548880.0, 3355660.0 ], [ 548880.0, 3350540.0 ] ] ] } },
{ "type": "Feature", "properties": { "patch_key": "agadir|AGADIR_r002048_c004608", "split": "train" }, "geometry": { "type": "Polygon", "coordinates": [ [ [ 558420.0, 3350540.0 ], [ 554000.0, 3350540.0 ], [ 554000.0, 3355660.0 ], [ 558420.0, 3355660.0 ], [ 558420.0, 3350540.0 ] ] ] } },
{ "type": "Feature", "properties": { "patch_key": "agadir|AGADIR_r002560_c000000", "split": "train" }, "geometry": { "type": "Polygon", "coordinates": [ [ [ 513040.0, 3345420.0 ], [ 507920.0, 3345420.0 ], [ 507920.0, 3350540.0 ], [ 513040.0, 3350540.0 ], [ 513040.0, 3345420.0 ] ] ] } },
{ "type": "Feature", "properties": { "patch_key": "agadir|AGADIR_r002560_c000512", "split": "train" }, "geometry": { "type": "Polygon", "coordinates": [ [ [ 518160.0, 3345420.0 ], [ 513040.0, 3345420.0 ], [ 513040.0, 3350540.0 ], [ 518160.0, 3350540.0 ], [ 518160.0, 3345420.0 ] ] ] } },
{ "type": "Feature", "properties": { "patch_key": "agadir|AGADIR_r002560_c001536", "split": "train" }, "geometry": { "type": "Polygon", "coordinates": [ [ [ 528400.0, 3345420.0 ], [ 523280.0, 3345420.0 ], [ 523280.0, 3350540.0 ], [ 528400.0, 3350540.0 ], [ 528400.0, 3345420.0 ] ] ] } },
{ "type": "Feature", "properties": { "patch_key": "agadir|AGADIR_r002560_c002048", "split": "train" }, "geometry": { "type": "Polygon", "coordinates": [ [ [ 533520.0, 3345420.0 ], [ 528400.0, 3345420.0 ], [ 528400.0, 3350540.0 ], [ 533520.0, 3350540.0 ], [ 533520.0, 3345420.0 ] ] ] } },
{ "type": "Feature", "properties": { "patch_key": "agadir|AGADIR_r002560_c002560", "split": "train" }, "geometry": { "type": "Polygon", "coordinates": [ [ [ 538640.0, 3345420.0 ], [ 533520.0, 3345420.0 ], [ 533520.0, 3350540.0 ], [ 538640.0, 3350540.0 ], [ 538640.0, 3345420.0 ] ] ] } },
{ "type": "Feature", "properties": { "patch_key": "agadir|AGADIR_r002560_c003072", "split": "train" }, "geometry": { "type": "Polygon", "coordinates": [ [ [ 543760.0, 3345420.0 ], [ 538640.0, 3345420.0 ], [ 538640.0, 3350540.0 ], [ 543760.0, 3350540.0 ], [ 543760.0, 3345420.0 ] ] ] } },
{ "type": "Feature", "properties": { "patch_key": "agadir|AGADIR_r002560_c003584", "split": "test" }, "geometry": { "type": "Polygon", "coordinates": [ [ [ 548880.0, 3345420.0 ], [ 543760.0, 3345420.0 ], [ 543760.0, 3350540.0 ], [ 548880.0, 3350540.0 ], [ 548880.0, 3345420.0 ] ] ] } },
{ "type": "Feature", "properties": { "patch_key": "agadir|AGADIR_r002560_c004608", "split": "train" }, "geometry": { "type": "Polygon", "coordinates": [ [ [ 558420.0, 3345420.0 ], [ 554000.0, 3345420.0 ], [ 554000.0, 3350540.0 ], [ 558420.0, 3350540.0 ], [ 558420.0, 3345420.0 ] ] ] } },
{ "type": "Feature", "properties": { "patch_key": "agadir|AGADIR_r003072_c000000", "split": "test" }, "geometry": { "type": "Polygon", "coordinates": [ [ [ 513040.0, 3340300.0 ], [ 507920.0, 3340300.0 ], [ 507920.0, 3345420.0 ], [ 513040.0, 3345420.0 ], [ 513040.0, 3340300.0 ] ] ] } },
{ "type": "Feature", "properties": { "patch_key": "agadir|AGADIR_r003072_c000512", "split": "train" }, "geometry": { "type": "Polygon", "coordinates": [ [ [ 518160.0, 3340300.0 ], [ 513040.0, 3340300.0 ], [ 513040.0, 3345420.0 ], [ 518160.0, 3345420.0 ], [ 518160.0, 3340300.0 ] ] ] } },
{ "type": "Feature", "properties": { "patch_key": "agadir|AGADIR_r003072_c001024", "split": "test" }, "geometry": { "type": "Polygon", "coordinates": [ [ [ 523280.0, 3340300.0 ], [ 518160.0, 3340300.0 ], [ 518160.0, 3345420.0 ], [ 523280.0, 3345420.0 ], [ 523280.0, 3340300.0 ] ] ] } },
{ "type": "Feature", "properties": { "patch_key": "agadir|AGADIR_r003072_c002048", "split": "train" }, "geometry": { "type": "Polygon", "coordinates": [ [ [ 533520.0, 3340300.0 ], [ 528400.0, 3340300.0 ], [ 528400.0, 3345420.0 ], [ 533520.0, 3345420.0 ], [ 533520.0, 3340300.0 ] ] ] } },
{ "type": "Feature", "properties": { "patch_key": "agadir|AGADIR_r003072_c003584", "split": "val" }, "geometry": { "type": "Polygon", "coordinates": [ [ [ 548880.0, 3340300.0 ], [ 543760.0, 3340300.0 ], [ 543760.0, 3345420.0 ], [ 548880.0, 3345420.0 ], [ 548880.0, 3340300.0 ] ] ] } },
{ "type": "Feature", "properties": { "patch_key": "agadir|AGADIR_r003584_c000512", "split": "train" }, "geometry": { "type": "Polygon", "coordinates": [ [ [ 518160.0, 3335180.0 ], [ 513040.0, 3335180.0 ], [ 513040.0, 3340300.0 ], [ 518160.0, 3340300.0 ], [ 518160.0, 3335180.0 ] ] ] } },
{ "type": "Feature", "properties": { "patch_key": "agadir|AGADIR_r003584_c001024", "split": "train" }, "geometry": { "type": "Polygon", "coordinates": [ [ [ 523280.0, 3335180.0 ], [ 518160.0, 3335180.0 ], [ 518160.0, 3340300.0 ], [ 523280.0, 3340300.0 ], [ 523280.0, 3335180.0 ] ] ] } },
{ "type": "Feature", "properties": { "patch_key": "agadir|AGADIR_r003584_c002048", "split": "train" }, "geometry": { "type": "Polygon", "coordinates": [ [ [ 533520.0, 3335180.0 ], [ 528400.0, 3335180.0 ], [ 528400.0, 3340300.0 ], [ 533520.0, 3340300.0 ], [ 533520.0, 3335180.0 ] ] ] } },
{ "type": "Feature", "properties": { "patch_key": "agadir|AGADIR_r003584_c002560", "split": "train" }, "geometry": { "type": "Polygon", "coordinates": [ [ [ 538640.0, 3335180.0 ], [ 533520.0, 3335180.0 ], [ 533520.0, 3340300.0 ], [ 538640.0, 3340300.0 ], [ 538640.0, 3335180.0 ] ] ] } },
{ "type": "Feature", "properties": { "patch_key": "agadir|AGADIR_r004096_c001024", "split": "train" }, "geometry": { "type": "Polygon", "coordinates": [ [ [ 523280.0, 3331010.0 ], [ 518160.0, 3331010.0 ], [ 518160.0, 3335180.0 ], [ 523280.0, 3335180.0 ], [ 523280.0, 3331010.0 ] ] ] } },
{ "type": "Feature", "properties": { "patch_key": "agadir|AGADIR_r004096_c001536", "split": "train" }, "geometry": { "type": "Polygon", "coordinates": [ [ [ 528400.0, 3331010.0 ], [ 523280.0, 3331010.0 ], [ 523280.0, 3335180.0 ], [ 528400.0, 3335180.0 ], [ 528400.0, 3331010.0 ] ] ] } },
{ "type": "Feature", "properties": { "patch_key": "agadir|AGADIR_r001024_c001536", "split": "train" }, "geometry": { "type": "Polygon", "coordinates": [ [ [ 528400.0, 3360780.0 ], [ 523280.0, 3360780.0 ], [ 523280.0, 3365900.0 ], [ 528400.0, 3365900.0 ], [ 528400.0, 3360780.0 ] ] ] } },
{ "type": "Feature", "properties": { "patch_key": "agadir|AGADIR_r001024_c003072", "split": "train" }, "geometry": { "type": "Polygon", "coordinates": [ [ [ 543760.0, 3360780.0 ], [ 538640.0, 3360780.0 ], [ 538640.0, 3365900.0 ], [ 543760.0, 3365900.0 ], [ 543760.0, 3360780.0 ] ] ] } },
{ "type": "Feature", "properties": { "patch_key": "agadir|AGADIR_r001536_c002048", "split": "train" }, "geometry": { "type": "Polygon", "coordinates": [ [ [ 533520.0, 3355660.0 ], [ 528400.0, 3355660.0 ], [ 528400.0, 3360780.0 ], [ 533520.0, 3360780.0 ], [ 533520.0, 3355660.0 ] ] ] } },
{ "type": "Feature", "properties": { "patch_key": "agadir|AGADIR_r002048_c000000", "split": "train" }, "geometry": { "type": "Polygon", "coordinates": [ [ [ 513040.0, 3350540.0 ], [ 507920.0, 3350540.0 ], [ 507920.0, 3355660.0 ], [ 513040.0, 3355660.0 ], [ 513040.0, 3350540.0 ] ] ] } },
{ "type": "Feature", "properties": { "patch_key": "agadir|AGADIR_r002048_c002048", "split": "train" }, "geometry": { "type": "Polygon", "coordinates": [ [ [ 533520.0, 3350540.0 ], [ 528400.0, 3350540.0 ], [ 528400.0, 3355660.0 ], [ 533520.0, 3355660.0 ], [ 533520.0, 3350540.0 ] ] ] } },
{ "type": "Feature", "properties": { "patch_key": "agadir|AGADIR_r002560_c004096", "split": "train" }, "geometry": { "type": "Polygon", "coordinates": [ [ [ 554000.0, 3345420.0 ], [ 548880.0, 3345420.0 ], [ 548880.0, 3350540.0 ], [ 554000.0, 3350540.0 ], [ 554000.0, 3345420.0 ] ] ] } },
{ "type": "Feature", "properties": { "patch_key": "agadir|AGADIR_r003072_c002560", "split": "train" }, "geometry": { "type": "Polygon", "coordinates": [ [ [ 538640.0, 3340300.0 ], [ 533520.0, 3340300.0 ], [ 533520.0, 3345420.0 ], [ 538640.0, 3345420.0 ], [ 538640.0, 3340300.0 ] ] ] } },
{ "type": "Feature", "properties": { "patch_key": "agadir|AGADIR_r003072_c003072", "split": "train" }, "geometry": { "type": "Polygon", "coordinates": [ [ [ 543760.0, 3340300.0 ], [ 538640.0, 3340300.0 ], [ 538640.0, 3345420.0 ], [ 543760.0, 3345420.0 ], [ 543760.0, 3340300.0 ] ] ] } },
{ "type": "Feature", "properties": { "patch_key": "agadir|AGADIR_r003584_c000000", "split": "train" }, "geometry": { "type": "Polygon", "coordinates": [ [ [ 513040.0, 3335180.0 ], [ 507920.0, 3335180.0 ], [ 507920.0, 3340300.0 ], [ 513040.0, 3340300.0 ], [ 513040.0, 3335180.0 ] ] ] } },
{ "type": "Feature", "properties": { "patch_key": "agadir|AGADIR_r004096_c000512", "split": "train" }, "geometry": { "type": "Polygon", "coordinates": [ [ [ 518160.0, 3331010.0 ], [ 513040.0, 3331010.0 ], [ 513040.0, 3335180.0 ], [ 518160.0, 3335180.0 ], [ 518160.0, 3331010.0 ] ] ] } }
]
}
