{
"type": "FeatureCollection",
"name": "ifran_sampled_domain",
"crs": { "type": "name", "properties": { "name": "urn:ogc:def:crs:EPSG::32630" } },
"features": [
{ "type": "Feature", "properties": { }, "geometry": { "type": "Polygon", "coordinates": [ [ [ 265520.0, 3675160.0 ], [ 270640.0, 3675160.0 ], [ 270640.0, 3680280.0 ], [ 275760.0, 3680280.0 ], [ 275760.0, 3685400.0 ], [ 280880.0, 3685400.0 ], [ 280880.0, 3690520.0 ], [ 286000.0, 3690520.0 ], [ 291120.0, 3690520.0 ], [ 296240.0, 3690520.0 ], [ 296240.0, 3685400.0 ], [ 296240.0, 3680280.0 ], [ 296240.0, 3675160.0 ], [ 296240.0, 3670040.0 ], [ 296240.0, 3664920.0 ], [ 291120.0, 3664920.0 ], [ 286000.0, 3664920.0 ], [ 286000.0, 3659800.0 ], [ 280880.0, 3659800.0 ], [ 275760.0, 3659800.0 ], [ 270640.0, 3659800.0 ], [ 265520.0, 3659800.0 ], [ 265520.0, 3664920.0 ], [ 265520.0, 3670040.0 ], [ 265520.0, 3675160.0 ] ] ] } }
]
}
