{
"type": "FeatureCollection",
"name": "ifran_spatial_partitions",
"crs": { "type": "name", "properties": { "name": "urn:ogc:def:crs:EPSG::32630" } },
"features": [
{ "type": "Feature", "properties": { "patch_key": "Ifran_6|Ifran_6_r000000_c001536", "split": "train" }, "geometry": { "type": "Polygon", "coordinates": [ [ [ 286000.0, 3685400.0 ], [ 280880.0, 3685400.0 ], [ 280880.0, 3690520.0 ], [ 286000.0, 3690520.0 ], [ 286000.0, 3685400.0 ] ] ] } },
{ "type": "Feature", "properties": { "patch_key": "Ifran_6|Ifran_6_r000000_c002048", "split": "train" }, "geometry": { "type": "Polygon", "coordinates": [ [ [ 291120.0, 3685400.0 ], [ 286000.0, 3685400.0 ], [ 286000.0, 3690520.0 ], [ 291120.0, 3690520.0 ], [ 291120.0, 3685400.0 ] ] ] } },
{ "type": "Feature", "properties": { "patch_key": "Ifran_6|Ifran_6_r000000_c002560", "split": "val" }, "geometry": { "type": "Polygon", "coordinates": [ [ [ 296240.0, 3685400.0 ], [ 291120.0, 3685400.0 ], [ 291120.0, 3690520.0 ], [ 296240.0, 3690520.0 ], [ 296240.0, 3685400.0 ] ] ] } },
{ "type": "Feature", "properties": { "patch_key": "Ifran_6|Ifran_6_r000512_c001024", "split": "val" }, "geometry": { "type": "Polygon", "coordinates": [ [ [ 280880.0, 3680280.0 ], [ 275760.0, 3680280.0 ], [ 275760.0, 3685400.0 ], [ 280880.0, 3685400.0 ], [ 280880.0, 3680280.0 ] ] ] } },
{ "type": "Feature", "properties": { "patch_key": "Ifran_6|Ifran_6_r000512_c001536", "split": "train" }, "geometry": { "type": "Polygon", "coordinates": [ [ [ 286000.0, 3680280.0 ], [ 280880.0, 3680280.0 ], [ 280880.0, 3685400.0 ], [ 286000.0, 3685400.0 ], [ 286000.0, 3680280.0 ] ] ] } },
{ "type": "Feature", "properties": { "patch_key": "Ifran_6|Ifran_6_r000512_c002048", "split": "train" }, "geometry": { "type": "Polygon", "coordinates": [ [ [ 291120.0, 3680280.0 ], [ 286000.0, 3680280.0 ], [ 286000.0, 3685400.0 ], [ 291120.0, 3685400.0 ], [ 291120.0, 3680280.0 ] ] ] } },
{ "type": "Feature", "properties": { "patch_key": "Ifran_6|Ifran_6_r000512_c002560", "split": "train" }, "geometry": { "type": "Polygon", "coordinates": [ [ [ 296240.0, 3680280.0 ], [ 291120.0, 3680280.0 ], [ 291120.0, 3685400.0 ], [ 296240.0, 3685400.0 ], [ 296240.0, 3680280.0 ] ] ] } },
{ "type": "Feature", "properties": { "patch_key": "Ifran_6|Ifran_6_r001024_c000512", "split": "train" }, "geometry": { "type": "Polygon", "coordinates": [ [ [ 275760.0, 3675160.0 ], [ 270640.0, 3675160.0 ], [ 270640.0, 3680280.0 ], [ 275760.0, 3680280.0 ], [ 275760.0, 3675160.0 ] ] ] } },
{ "type": "Feature", "properties": { "patch_key": "Ifran_6|Ifran_6_r001024_c001024", "split": "train" }, "geometry": { "type": "Polygon", "coordinates": [ [ [ 280880.0, 3675160.0 ], [ 275760.0, 3675160.0 ], [ 275760.0, 3680280.0 ], [ 280880.0, 3680280.0 ], [ 280880.0, 3675160.0 ] ] ] } },
{ "type": "Feature", "properties": { "patch_key": "Ifran_6|Ifran_6_r001024_c001536", "split": "train" }, "geometry": { "type": "Polygon", "coordinates": [ [ [ 286000.0, 3675160.0 ], [ 280880.0, 3675160.0 ], [ 280880.0, 3680280.0 ], [ 286000.0, 3680280.0 ], [ 286000.0, 3675160.0 ] ] ] } },
{ "type": "Feature", "properties": { "patch_key": "Ifran_6|Ifran_6_r001024_c002048", "split": "val" }, "geometry": { "type": "Polygon", "coordinates": [ [ [ 291120.0, 3675160.0 ], [ 286000.0, 3675160.0 ], [ 286000.0, 3680280.0 ], [ 291120.0, 3680280.0 ], [ 291120.0, 3675160.0 ] ] ] } },
{ "type": "Feature", "properties": { "patch_key": "Ifran_6|Ifran_6_r001024_c002560", "split": "train" }, "geometry": { "type": "Polygon", "coordinates": [ [ [ 296240.0, 3675160.0 ], [ 291120.0, 3675160.0 ], [ 291120.0, 3680280.0 ], [ 296240.0, 3680280.0 ], [ 296240.0, 3675160.0 ] ] ] } },
{ "type": "Feature", "properties": { "patch_key": "Ifran_6|Ifran_6_r001536_c000000", "split": "train" }, "geometry": { "type": "Polygon", "coordinates": [ [ [ 270640.0, 3670040.0 ], [ 265520.0, 3670040.0 ], [ 265520.0, 3675160.0 ], [ 270640.0, 3675160.0 ], [ 270640.0, 3670040.0 ] ] ] } },
{ "type": "Feature", "properties": { "patch_key": "Ifran_6|Ifran_6_r001536_c000512", "split": "train" }, "geometry": { "type": "Polygon", "coordinates": [ [ [ 275760.0, 3670040.0 ], [ 270640.0, 3670040.0 ], [ 270640.0, 3675160.0 ], [ 275760.0, 3675160.0 ], [ 275760.0, 3670040.0 ] ] ] } },
{ "type": "Feature", "properties": { "patch_key": "Ifran_6|Ifran_6_r001536_c001024", "split": "train" }, "geometry": { "type": "Polygon", "coordinates": [ [ [ 280880.0, 3670040.0 ], [ 275760.0, 3670040.0 ], [ 275760.0, 3675160.0 ], [ 280880.0, 3675160.0 ], [ 280880.0, 3670040.0 ] ] ] } },
{ "type": "Feature", "properties": { "patch_key": "Ifran_6|Ifran_6_r001536_c001536", "split": "train" }, "geometry": { "type": "Polygon", "coordinates": [ [ [ 286000.0, 3670040.0 ], [ 280880.0, 3670040.0 ], [ 280880.0, 3675160.0 ], [ 286000.0, 3675160.0 ], [ 286000.0, 3670040.0 ] ] ] } },
{ "type": "Feature", "properties": { "patch_key": "Ifran_6|Ifran_6_r001536_c002048", "split": "train" }, "geometry": { "type": "Polygon", "coordinates": [ [ [ 291120.0, 3670040.0 ], [ 286000.0, 3670040.0 ], [ 286000.0, 3675160.0 ], [ 291120.0, 3675160.0 ], [ 291120.0, 3670040.0 ] ] ] } },
{ "type": "Feature", "properties": { "patch_key": "Ifran_6|Ifran_6_r001536_c002560", "split": "train" }, "geometry": { "type": "Polygon", "coordinates": [ [ [ 296240.0, 3670040.0 ], [ 291120.0, 3670040.0 ], [ 291120.0, 3675160.0 ], [ 296240.0, 3675160.0 ], [ 296240.0, 3670040.0 ] ] ] } },
{ "type": "Feature", "properties": { "patch_key": "Ifran_6|Ifran_6_r002048_c000000", "split": "train" }, "geometry": { "type": "Polygon", "coordinates": [ [ [ 270640.0, 3664920.0 ], [ 265520.0, 3664920.0 ], [ 265520.0, 3670040.0 ], [ 270640.0, 3670040.0 ], [ 270640.0, 3664920.0 ] ] ] } },
{ "type": "Feature", "properties": { "patch_key": "Ifran_6|Ifran_6_r002048_c000512", "split": "val" }, "geometry": { "type": "Polygon", "coordinates": [ [ [ 275760.0, 3664920.0 ], [ 270640.0, 3664920.0 ], [ 270640.0, 3670040.0 ], [ 275760.0, 3670040.0 ], [ 275760.0, 3664920.0 ] ] ] } },
{ "type": "Feature", "properties": { "patch_key": "Ifran_6|Ifran_6_r002048_c001024", "split": "test" }, "geometry": { "type": "Polygon", "coordinates": [ [ [ 280880.0, 3664920.0 ], [ 275760.0, 3664920.0 ], [ 275760.0, 3670040.0 ], [ 280880.0, 3670040.0 ], [ 280880.0, 3664920.0 ] ] ] } },
{ "type": "Feature", "properties": { "patch_key": "Ifran_6|Ifran_6_r002048_c001536", "split": "test" }, "geometry": { "type": "Polygon", "coordinates": [ [ [ 286000.0, 3664920.0 ], [ 280880.0, 3664920.0 ], [ 280880.0, 3670040.0 ], [ 286000.0, 3670040.0 ], [ 286000.0, 3664920.0 ] ] ] } },
{ "type": "Feature", "properties": { "patch_key": "Ifran_6|Ifran_6_r002048_c002048", "split": "train" }, "geometry": { "type": "Polygon", "coordinates": [ [ [ 291120.0, 3664920.0 ], [ 286000.0, 3664920.0 ], [ 286000.0, 3670040.0 ], [ 291120.0, 3670040.0 ], [ 291120.0, 3664920.0 ] ] ] } },
{ "type": "Feature", "properties": { "patch_key": "Ifran_6|Ifran_6_r002048_c002560", "split": "train" }, "geometry": { "type": "Polygon", "coordinates": [ [ [ 296240.0, 3664920.0 ], [ 291120.0, 3664920.0 ], [ 291120.0, 3670040.0 ], [ 296240.0, 3670040.0 ], [ 296240.0, 3664920.0 ] ] ] } },
{ "type": "Feature", "properties": { "patch_key": "Ifran_6|Ifran_6_r002560_c000000", "split": "val" }, "geometry": { "type": "Polygon", "coordinates": [ [ [ 270640.0, 3659800.0 ], [ 265520.0, 3659800.0 ], [ 265520.0, 3664920.0 ], [ 270640.0, 3664920.0 ], [ 270640.0, 3659800.0 ] ] ] } },
{ "type": "Feature", "properties": { "patch_key": "Ifran_6|Ifran_6_r002560_c000512", "split": "train" }, "geometry": { "type": "Polygon", "coordinates": [ [ [ 275760.0, 3659800.0 ], [ 270640.0, 3659800.0 ], [ 270640.0, 3664920.0 ], [ 275760.0, 3664920.0 ], [ 275760.0, 3659800.0 ] ] ] } },
{ "type": "Feature", "properties": { "patch_key": "Ifran_6|Ifran_6_r002560_c001024", "split": "train" }, "geometry": { "type": "Polygon", "coordinates": [ [ [ 280880.0, 3659800.0 ], [ 275760.0, 3659800.0 ], [ 275760.0, 3664920.0 ], [ 280880.0, 3664920.0 ], [ 280880.0, 3659800.0 ] ] ] } },
{ "type": "Feature", "properties": { "patch_key": "Ifran_6|Ifran_6_r002560_c001536", "split": "train" }, "geometry": { "type": "Polygon", "coordinates": [ [ [ 286000.0, 3659800.0 ], [ 280880.0, 3659800.0 ], [ 280880.0, 3664920.0 ], [ 286000.0, 3664920.0 ], [ 286000.0, 3659800.0 ] ] ] } }
]
}
