{
"type": "FeatureCollection",
"name": "maamoura_sampled_domain",
"crs": { "type": "name", "properties": { "name": "urn:ogc:def:crs:EPSG::32630" } },
"features": [
{ "type": "Feature", "properties": { }, "geometry": { "type": "Polygon", "coordinates": [ [ [ 155920.0, 3777360.0 ], [ 155920.0, 3782480.0 ], [ 161040.0, 3782480.0 ], [ 161040.0, 3787600.0 ], [ 161040.0, 3792720.0 ], [ 166160.0, 3792720.0 ], [ 171280.0, 3792720.0 ], [ 176400.0, 3792720.0 ], [ 176400.0, 3787600.0 ], [ 180230.0, 3787600.0 ], [ 180230.0, 3782480.0 ], [ 180230.0, 3777360.0 ], [ 176400.0, 3777360.0 ], [ 176400.0, 3772240.0 ], [ 171280.0, 3772240.0 ], [ 171280.0, 3767950.0 ], [ 166160.0, 3767950.0 ], [ 161040.0, 3767950.0 ], [ 161040.0, 3772240.0 ], [ 155920.0, 3772240.0 ], [ 155920.0, 3777360.0 ] ] ] } }
]
}
