{
"type": "FeatureCollection",
"name": "maamoura_spatial_partitions",
"crs": { "type": "name", "properties": { "name": "urn:ogc:def:crs:EPSG::32630" } },
"features": [
{ "type": "Feature", "properties": { "patch_key": "maamoura|MAAMOURA_r001024_c001536", "split": "test" }, "geometry": { "type": "Polygon", "coordinates": [ [ [ 176400.0, 3777360.0 ], [ 171280.0, 3777360.0 ], [ 171280.0, 3782480.0 ], [ 176400.0, 3782480.0 ], [ 176400.0, 3777360.0 ] ] ] } },
{ "type": "Feature", "properties": { "patch_key": "maamoura|MAAMOURA_r001024_c000512", "split": "test" }, "geometry": { "type": "Polygon", "coordinates": [ [ [ 166160.0, 3777360.0 ], [ 161040.0, 3777360.0 ], [ 161040.0, 3782480.0 ], [ 166160.0, 3782480.0 ], [ 166160.0, 3777360.0 ] ] ] } },
{ "type": "Feature", "properties": { "patch_key": "maamoura|MAAMOURA_r000000_c000512", "split": "train" }, "geometry": { "type": "Polygon", "coordinates": [ [ [ 166160.0, 3787600.0 ], [ 161040.0, 3787600.0 ], [ 161040.0, 3792720.0 ], [ 166160.0, 3792720.0 ], [ 166160.0, 3787600.0 ] ] ] } },
{ "type": "Feature", "properties": { "patch_key": "maamoura|MAAMOURA_r000000_c001536", "split": "train" }, "geometry": { "type": "Polygon", "coordinates": [ [ [ 176400.0, 3787600.0 ], [ 171280.0, 3787600.0 ], [ 171280.0, 3792720.0 ], [ 176400.0, 3792720.0 ], [ 176400.0, 3787600.0 ] ] ] } },
{ "type": "Feature", "properties": { "patch_key": "maamoura|MAAMOURA_r000512_c000512", "split": "train" }, "geometry": { "type": "Polygon", "coordinates": [ [ [ 166160.0, 3782480.0 ], [ 161040.0, 3782480.0 ], [ 161040.0, 3787600.0 ], [ 166160.0, 3787600.0 ], [ 166160.0, 3782480.0 ] ] ] } },
{ "type": "Feature", "properties": { "patch_key": "maamoura|MAAMOURA_r000512_c001024", "split": "train" }, "geometry": { "type": "Polygon", "coordinates": [ [ [ 171280.0, 3782480.0 ], [ 166160.0, 3782480.0 ], [ 166160.0, 3787600.0 ], [ 171280.0, 3787600.0 ], [ 171280.0, 3782480.0 ] ] ] } },
{ "type": "Feature", "properties": { "patch_key": "maamoura|MAAMOURA_r000512_c001536", "split": "train" }, "geometry": { "type": "Polygon", "coordinates": [ [ [ 176400.0, 3782480.0 ], [ 171280.0, 3782480.0 ], [ 171280.0, 3787600.0 ], [ 176400.0, 3787600.0 ], [ 176400.0, 3782480.0 ] ] ] } },
{ "type": "Feature", "properties": { "patch_key": "maamoura|MAAMOURA_r000512_c002048", "split": "train" }, "geometry": { "type": "Polygon", "coordinates": [ [ [ 180230.0, 3782480.0 ], [ 176400.0, 3782480.0 ], [ 176400.0, 3787600.0 ], [ 180230.0, 3787600.0 ], [ 180230.0, 3782480.0 ] ] ] } },
{ "type": "Feature", "properties": { "patch_key": "maamoura|MAAMOURA_r001024_c000000", "split": "train" }, "geometry": { "type": "Polygon", "coordinates": [ [ [ 161040.0, 3777360.0 ], [ 155920.0, 3777360.0 ], [ 155920.0, 3782480.0 ], [ 161040.0, 3782480.0 ], [ 161040.0, 3777360.0 ] ] ] } },
{ "type": "Feature", "properties": { "patch_key": "maamoura|MAAMOURA_r001024_c001024", "split": "train" }, "geometry": { "type": "Polygon", "coordinates": [ [ [ 171280.0, 3777360.0 ], [ 166160.0, 3777360.0 ], [ 166160.0, 3782480.0 ], [ 171280.0, 3782480.0 ], [ 171280.0, 3777360.0 ] ] ] } },
{ "type": "Feature", "properties": { "patch_key": "maamoura|MAAMOURA_r001024_c002048", "split": "train" }, "geometry": { "type": "Polygon", "coordinates": [ [ [ 180230.0, 3777360.0 ], [ 176400.0, 3777360.0 ], [ 176400.0, 3782480.0 ], [ 180230.0, 3782480.0 ], [ 180230.0, 3777360.0 ] ] ] } },
{ "type": "Feature", "properties": { "patch_key": "maamoura|MAAMOURA_r001536_c000000", "split": "train" }, "geometry": { "type": "Polygon", "coordinates": [ [ [ 161040.0, 3772240.0 ], [ 155920.0, 3772240.0 ], [ 155920.0, 3777360.0 ], [ 161040.0, 3777360.0 ], [ 161040.0, 3772240.0 ] ] ] } },
{ "type": "Feature", "properties": { "patch_key": "maamoura|MAAMOURA_r002048_c000512", "split": "train" }, "geometry": { "type": "Polygon", "coordinates": [ [ [ 166160.0, 3767950.0 ], [ 161040.0, 3767950.0 ], [ 161040.0, 3772240.0 ], [ 166160.0, 3772240.0 ], [ 166160.0, 3767950.0 ] ] ] } },
{ "type": "Feature", "properties": { "patch_key": "maamoura|MAAMOURA_r002048_c001024", "split": "train" }, "geometry": { "type": "Polygon", "coordinates": [ [ [ 171280.0, 3767950.0 ], [ 166160.0, 3767950.0 ], [ 166160.0, 3772240.0 ], [ 171280.0, 3772240.0 ], [ 171280.0, 3767950.0 ] ] ] } },
{ "type": "Feature", "properties": { "patch_key": "maamoura|MAAMOURA_r001536_c000512", "split": "train" }, "geometry": { "type": "Polygon", "coordinates": [ [ [ 166160.0, 3772240.0 ], [ 161040.0, 3772240.0 ], [ 161040.0, 3777360.0 ], [ 166160.0, 3777360.0 ], [ 166160.0, 3772240.0 ] ] ] } },
{ "type": "Feature", "properties": { "patch_key": "maamoura|MAAMOURA_r001536_c001024", "split": "val" }, "geometry": { "type": "Polygon", "coordinates": [ [ [ 171280.0, 3772240.0 ], [ 166160.0, 3772240.0 ], [ 166160.0, 3777360.0 ], [ 171280.0, 3777360.0 ], [ 171280.0, 3772240.0 ] ] ] } },
{ "type": "Feature", "properties": { "patch_key": "maamoura|MAAMOURA_r001536_c001536", "split": "val" }, "geometry": { "type": "Polygon", "coordinates": [ [ [ 176400.0, 3772240.0 ], [ 171280.0, 3772240.0 ], [ 171280.0, 3777360.0 ], [ 176400.0, 3777360.0 ], [ 176400.0, 3772240.0 ] ] ] } },
{ "type": "Feature", "properties": { "patch_key": "maamoura|MAAMOURA_r000000_c001024", "split": "val" }, "geometry": { "type": "Polygon", "coordinates": [ [ [ 171280.0, 3787600.0 ], [ 166160.0, 3787600.0 ], [ 166160.0, 3792720.0 ], [ 171280.0, 3792720.0 ], [ 171280.0, 3787600.0 ] ] ] } }
]
}
